start=new Date('2022-09-01T00:00:00.000Z').valueOf();
sats=[{"LAUNCH_DATE":"2022-08-10","INCLINATION":"53.2173","TLE_LINE2":"2 53388  53.2173 140.6773 0001361  56.4477 189.4560 15.62590992  1307","BSTAR":"-0.01355400000000","TLE_LINE1":"1 53388U 22097A   22243.91667824 -.01117714  00000-0 -13554-1 0  9996","RCS_SIZE":"LARGE","EPOCH":"2022-08-31T22:00:00.999936","EPHEMERIS_TYPE":"0","REF_FRAME":"TEME","MEAN_MOTION_DDOT":"0.0000000000000","CENTER_NAME":"EARTH","NORAD_CAT_ID":"53388","MEAN_MOTION":"15.62590992","MEAN_ELEMENT_THEORY":"SGP4","GP_ID":"211427745","RA_OF_ASC_NODE":"140.6773","FILE":"3552761","SEMIMAJOR_AXIS":"6758.313","APOAPSIS":"381.098","OBJECT_TYPE":"PAYLOAD","PERIOD":"92.155","ARG_OF_PERICENTER":"56.4477","OBJECT_ID":"2022-097A","ECCENTRICITY":"0.00013610","ELEMENT_SET_NO":"999","REV_AT_EPOCH":"130","MEAN_ANOMALY":"189.4560","SITE":"AFETR","CLASSIFICATION_TYPE":"U","COUNTRY_CODE":"US","MEAN_MOTION_DOT":"-0.01117714","TIME_SYSTEM":"UTC","OBJECT_NAME":"STARLINK-4522","PERIAPSIS":"379.258","DECAY_DATE":null},{"TIME_SYSTEM":"UTC","DECAY_DATE":null,"PERIAPSIS":"379.294","OBJECT_NAME":"STARLINK-4523","MEAN_MOTION_DOT":"-0.01117735","COUNTRY_CODE":"US","SITE":"AFETR","CLASSIFICATION_TYPE":"U","ELEMENT_SET_NO":"999","ECCENTRICITY":"0.00012450","REV_AT_EPOCH":"130","MEAN_ANOMALY":"176.4019","ARG_OF_PERICENTER":"70.9180","OBJECT_ID":"2022-097B","PERIOD":"92.154","OBJECT_TYPE":"PAYLOAD","APOAPSIS":"380.977","SEMIMAJOR_AXIS":"6758.271","FILE":"3552761","RA_OF_ASC_NODE":"140.6879","MEAN_ELEMENT_THEORY":"SGP4","GP_ID":"211426898","CENTER_NAME":"EARTH","NORAD_CAT_ID":"53389","MEAN_MOTION":"15.62605615","RCS_SIZE":"LARGE","EPHEMERIS_TYPE":"0","EPOCH":"2022-08-31T22:00:00.999936","TLE_LINE1":"1 53389U 22097B   22243.91667824 -.01117735  00000-0 -13547-1 0  9992","MEAN_MOTION_DDOT":"0.0000000000000","REF_FRAME":"TEME","BSTAR":"-0.01354700000000","LAUNCH_DATE":"2022-08-10","INCLINATION":"53.2173","TLE_LINE2":"2 53389  53.2173 140.6879 0001245  70.9180 176.4019 15.62605615  1302"},{"CENTER_NAME":"EARTH","NORAD_CAT_ID":"53390","MEAN_MOTION":"15.62598285","TLE_LINE1":"1 53390U 22097C   22243.91667824 -.01117676  00000-0 -13550-1 0  9992","RCS_SIZE":"LARGE","EPHEMERIS_TYPE":"0","EPOCH":"2022-08-31T22:00:00.999936","REF_FRAME":"TEME","MEAN_MOTION_DDOT":"0.0000000000000","BSTAR":"-0.01355000000000","LAUNCH_DATE":"2022-08-10","INCLINATION":"53.2173","TLE_LINE2":"2 53390  53.2173 140.6829 0001273  66.2660 180.3458 15.62598285  1306","FILE":"3552761","RA_OF_ASC_NODE":"140.6829","MEAN_ELEMENT_THEORY":"SGP4","GP_ID":"211427601","OBJECT_ID":"2022-097C","ARG_OF_PERICENTER":"66.2660","PERIOD":"92.154","OBJECT_TYPE":"PAYLOAD","APOAPSIS":"381.017","SEMIMAJOR_AXIS":"6758.292","TIME_SYSTEM":"UTC","OBJECT_NAME":"STARLINK-4517","PERIAPSIS":"379.297","DECAY_DATE":null,"COUNTRY_CODE":"US","MEAN_MOTION_DOT":"-0.01117676","SITE":"AFETR","CLASSIFICATION_TYPE":"U","ECCENTRICITY":"0.00012730","ELEMENT_SET_NO":"999","REV_AT_EPOCH":"130","MEAN_ANOMALY":"180.3458"},{"MEAN_MOTION":"15.62612947","CENTER_NAME":"EARTH","NORAD_CAT_ID":"53391","REF_FRAME":"TEME","MEAN_MOTION_DDOT":"0.0000000000000","EPHEMERIS_TYPE":"0","RCS_SIZE":"LARGE","EPOCH":"2022-08-31T22:00:00.999936","TLE_LINE1":"1 53391U 22097D   22243.91667824 -.01117723  00000-0 -13543-1 0  9998","BSTAR":"-0.01354300000000","TLE_LINE2":"2 53391  53.2174 140.6936 0001230  73.9375 174.0903 15.62612947  1305","INCLINATION":"53.2174","LAUNCH_DATE":"2022-08-10","FILE":"3552761","RA_OF_ASC_NODE":"140.6936","GP_ID":"211427041","MEAN_ELEMENT_THEORY":"SGP4","ARG_OF_PERICENTER":"73.9375","OBJECT_ID":"2022-097D","OBJECT_TYPE":"PAYLOAD","PERIOD":"92.153","APOAPSIS":"380.946","SEMIMAJOR_AXIS":"6758.250","DECAY_DATE":null,"OBJECT_NAME":"STARLINK-4521","PERIAPSIS":"379.283","TIME_SYSTEM":"UTC","MEAN_MOTION_DOT":"-0.01117723","COUNTRY_CODE":"US","SITE":"AFETR","CLASSIFICATION_TYPE":"U","MEAN_ANOMALY":"174.0903","ECCENTRICITY":"0.00012300","ELEMENT_SET_NO":"999","REV_AT_EPOCH":"130"},{"GP_ID":"211427897","MEAN_ELEMENT_THEORY":"SGP4","FILE":"3552761","RA_OF_ASC_NODE":"140.7054","BSTAR":"-0.01353600000000","TLE_LINE2":"2 53392  53.2174 140.7054 0001264  67.0519 182.3915 15.62627609  1305","LAUNCH_DATE":"2022-08-10","INCLINATION":"53.2174","MEAN_MOTION":"15.62627609","CENTER_NAME":"EARTH","NORAD_CAT_ID":"53392","REF_FRAME":"TEME","MEAN_MOTION_DDOT":"0.0000000000000","EPOCH":"2022-08-31T22:00:00.999936","RCS_SIZE":"LARGE","EPHEMERIS_TYPE":"0","TLE_LINE1":"1 53392U 22097E   22243.91667824 -.01117796  00000-0 -13536-1 0  9991","CLASSIFICATION_TYPE":"U","SITE":"AFETR","MEAN_ANOMALY":"182.3915","ECCENTRICITY":"0.00012640","REV_AT_EPOCH":"130","ELEMENT_SET_NO":"999","DECAY_DATE":null,"OBJECT_NAME":"STARLINK-4535","PERIAPSIS":"379.218","TIME_SYSTEM":"UTC","MEAN_MOTION_DOT":"-0.01117796","COUNTRY_CODE":"US","APOAPSIS":"380.927","SEMIMAJOR_AXIS":"6758.207","ARG_OF_PERICENTER":"67.0519","OBJECT_ID":"2022-097E","OBJECT_TYPE":"PAYLOAD","PERIOD":"92.152"},{"TIME_SYSTEM":"UTC","DECAY_DATE":null,"OBJECT_NAME":"STARLINK-4530","PERIAPSIS":"379.269","MEAN_MOTION_DOT":"-0.01117788","COUNTRY_CODE":"US","SITE":"AFETR","CLASSIFICATION_TYPE":"U","ELEMENT_SET_NO":"999","REV_AT_EPOCH":"130","ECCENTRICITY":"0.00012200","MEAN_ANOMALY":"172.5598","OBJECT_ID":"2022-097F","ARG_OF_PERICENTER":"76.1758","OBJECT_TYPE":"PAYLOAD","PERIOD":"92.153","APOAPSIS":"380.918","SEMIMAJOR_AXIS":"6758.228","FILE":"3552761","RA_OF_ASC_NODE":"140.6993","MEAN_ELEMENT_THEORY":"SGP4","GP_ID":"211427316","NORAD_CAT_ID":"53393","CENTER_NAME":"EARTH","MEAN_MOTION":"15.62620279","RCS_SIZE":"LARGE","EPOCH":"2022-08-31T22:00:00.999936","EPHEMERIS_TYPE":"0","TLE_LINE1":"1 53393U 22097F   22243.91667824 -.01117788  00000-0 -13540-1 0  9998","MEAN_MOTION_DDOT":"0.0000000000000","REF_FRAME":"TEME","BSTAR":"-0.01354000000000","LAUNCH_DATE":"2022-08-10","INCLINATION":"53.2174","TLE_LINE2":"2 53393  53.2174 140.6993 0001220  76.1758 172.5598 15.62620279  1309"},{"MEAN_MOTION":"15.73210906","CENTER_NAME":"EARTH","NORAD_CAT_ID":"53394","REF_FRAME":"TEME","MEAN_MOTION_DDOT":"0.0000000000000","RCS_SIZE":"LARGE","EPOCH":"2022-08-31T22:00:00.999936","EPHEMERIS_TYPE":"0","TLE_LINE1":"1 53394U 22097G   22243.91667824 -.00011185  00000-0 -75346-4 0  9997","BSTAR":"-0.00007534600000","TLE_LINE2":"2 53394  53.2177 140.1354 0001217  64.5552 119.6701 15.73210906  1300","LAUNCH_DATE":"2022-08-10","INCLINATION":"53.2177","FILE":"3552761","RA_OF_ASC_NODE":"140.1354","GP_ID":"211427184","MEAN_ELEMENT_THEORY":"SGP4","ARG_OF_PERICENTER":"64.5552","OBJECT_ID":"2022-097G","PERIOD":"91.533","OBJECT_TYPE":"PAYLOAD","APOAPSIS":"350.548","SEMIMAJOR_AXIS":"6727.864","DECAY_DATE":null,"PERIAPSIS":"348.910","OBJECT_NAME":"STARLINK-4544","TIME_SYSTEM":"UTC","MEAN_MOTION_DOT":"-0.00011185","COUNTRY_CODE":"US","CLASSIFICATION_TYPE":"U","SITE":"AFETR","MEAN_ANOMALY":"119.6701","ELEMENT_SET_NO":"999","ECCENTRICITY":"0.00012170","REV_AT_EPOCH":"130"},{"TLE_LINE1":"1 53395U 22097H   22243.91667824 -.01117853  00000-0 -13533-1 0  9995","RCS_SIZE":"LARGE","EPOCH":"2022-08-31T22:00:00.999936","EPHEMERIS_TYPE":"0","REF_FRAME":"TEME","MEAN_MOTION_DDOT":"0.0000000000000","NORAD_CAT_ID":"53395","CENTER_NAME":"EARTH","MEAN_MOTION":"15.62634938","INCLINATION":"53.2174","LAUNCH_DATE":"2022-08-10","TLE_LINE2":"2 53395  53.2174 140.7105 0001232  72.7239 177.4272 15.62634938  1306","BSTAR":"-0.01353300000000","RA_OF_ASC_NODE":"140.7105","FILE":"3552761","MEAN_ELEMENT_THEORY":"SGP4","GP_ID":"211427459","OBJECT_TYPE":"PAYLOAD","PERIOD":"92.152","OBJECT_ID":"2022-097H","ARG_OF_PERICENTER":"72.7239","SEMIMAJOR_AXIS":"6758.186","APOAPSIS":"380.884","COUNTRY_CODE":"US","MEAN_MOTION_DOT":"-0.01117853","TIME_SYSTEM":"UTC","OBJECT_NAME":"STARLINK-4534","PERIAPSIS":"379.219","DECAY_DATE":null,"ECCENTRICITY":"0.00012320","REV_AT_EPOCH":"130","ELEMENT_SET_NO":"999","MEAN_ANOMALY":"177.4272","CLASSIFICATION_TYPE":"U","SITE":"AFETR"},{"BSTAR":"-0.01351900000000","INCLINATION":"53.2174","LAUNCH_DATE":"2022-08-10","TLE_LINE2":"2 53396  53.2174 140.7332 0001205  79.0132 173.9680 15.62664266  1302","NORAD_CAT_ID":"53396","CENTER_NAME":"EARTH","MEAN_MOTION":"15.62664266","EPOCH":"2022-08-31T22:00:00.999936","RCS_SIZE":"LARGE","EPHEMERIS_TYPE":"0","TLE_LINE1":"1 53396U 22097J   22243.91667824 -.01117966  00000-0 -13519-1 0  9995","MEAN_MOTION_DDOT":"0.0000000000000","REF_FRAME":"TEME","MEAN_ELEMENT_THEORY":"SGP4","GP_ID":"211427746","FILE":"3552761","RA_OF_ASC_NODE":"140.7332","APOAPSIS":"380.781","SEMIMAJOR_AXIS":"6758.102","ARG_OF_PERICENTER":"79.0132","OBJECT_ID":"2022-097J","PERIOD":"92.150","OBJECT_TYPE":"PAYLOAD","CLASSIFICATION_TYPE":"U","SITE":"AFETR","REV_AT_EPOCH":"130","ELEMENT_SET_NO":"999","ECCENTRICITY":"0.00012050","MEAN_ANOMALY":"173.9680","TIME_SYSTEM":"UTC","DECAY_DATE":null,"OBJECT_NAME":"STARLINK-4524","PERIAPSIS":"379.152","MEAN_MOTION_DOT":"-0.01117966","COUNTRY_CODE":"US"},{"CLASSIFICATION_TYPE":"U","SITE":"AFETR","MEAN_ANOMALY":"180.8381","ECCENTRICITY":"0.00012440","REV_AT_EPOCH":"130","ELEMENT_SET_NO":"999","DECAY_DATE":null,"PERIAPSIS":"379.189","OBJECT_NAME":"STARLINK-4515","TIME_SYSTEM":"UTC","MEAN_MOTION_DOT":"-0.01117850","COUNTRY_CODE":"US","APOAPSIS":"380.871","SEMIMAJOR_AXIS":"6758.165","ARG_OF_PERICENTER":"70.0207","OBJECT_ID":"2022-097K","OBJECT_TYPE":"PAYLOAD","PERIOD":"92.152","GP_ID":"211426899","MEAN_ELEMENT_THEORY":"SGP4","FILE":"3552761","RA_OF_ASC_NODE":"140.7161","BSTAR":"-0.01352900000000","TLE_LINE2":"2 53397  53.2174 140.7161 0001244  70.0207 180.8381 15.62642271  1307","INCLINATION":"53.2174","LAUNCH_DATE":"2022-08-10","MEAN_MOTION":"15.62642271","NORAD_CAT_ID":"53397","CENTER_NAME":"EARTH","MEAN_MOTION_DDOT":"0.0000000000000","REF_FRAME":"TEME","EPOCH":"2022-08-31T22:00:00.999936","RCS_SIZE":"LARGE","EPHEMERIS_TYPE":"0","TLE_LINE1":"1 53397U 22097K   22243.91667824 -.01117850  00000-0 -13529-1 0  9999"}];
